#cP2024  2  3 18  0  0.00000000     577 d+D   IGS20 EXT AIUB
## 2299 583200.00000000   300.00000000 60343 0.7500000000000
+   76   G01G02G03G05G06G07G08G09G10G11G12G13G14G15G16G17G18
+        G20G21G22G23G24G25G26G27G28G29G30G31G32R01R02R03R04
+        R05R07R08R09R11R12R13R14R15R16R17R18R19R20R21R22R24
+        E02E03E04E05E07E08E09E10E11E12E13E14E15E18E19E21E24
+        E25E26E27E30E31E33E34E36  0  0  0  0  0  0  0  0  0
++         5  7  7  7  7  7  5  6  5  7  7  7  6  7  7  7  7
++         7  7  7  6  6  6  6  6  5  7  6  7  7  9  7  8  8
++         8  8  8  7  6  6  7  5  6  7  8  7  9 10  8  7  8
++         6  8  8  8  8  8  8  7  6  7  6  6  6  7  7  6  5
++         5  7  6  6  6  7  6  6  0  0  0  0  0  0  0  0  0
%c M  cc GPS ccc cccc cccc cccc cccc ccccc ccccc ccccc ccccc
%c cc cc ccc ccc cccc cccc cccc cccc ccccc ccccc ccccc ccccc
%f  1.2500000  1.025000000  0.00000000000  0.000000000000000
%f  0.0000000  0.000000000  0.00000000000  0.000000000000000
%i    0    0    0    0      0      0      0      0         0
%i    0    0    0    0      0      0      0      0         0
/* Center for Orbit Determination in Europe (CODE)          
/* Ultra-rapid GRE orbits starting year-day 24034 18 hour   
/* Observed/predicted: 24/24 hours (data used up to 035R)   
/* PCV:IGS20      OL/AL:FES2014b NONE     YN ORB:CoN CLK:BRD
*  2024  2  5  0 55  0.00000000
PG01  22835.329952  12418.950602   5925.342874    168.328616               P   P
PG02  22344.087026  14510.012030  -1239.776197   -490.384160               P   P
PG03  12051.689563  12549.148022  19963.372973    172.529949               P   P
PG05  -7231.450916 -22409.371545 -12367.103378   -160.592690               P   P
PG06   5387.141818 -13988.206586  21983.616125    419.389472               P   P
PG07  21258.465155   1618.798010 -15642.658560    -54.273151               P   P
PG08  13084.146919  10124.365638 -20951.401378   -165.500278               P   P
PG09  24848.159977  -6555.918316   6751.784976     81.537618               P   P
PG10 -10681.651340  20388.413133 -12755.919249    -72.049525               P   P
PG11  -6002.514674 -19701.470329  16822.091739   -564.814627               P   P
PG12 -11371.534567 -13649.472397  19480.837566   -474.828118               P   P
PG13  -2643.495570 -14898.679493 -22021.554566    622.545965               P   P
PG14  13339.377397 -17013.753137 -15281.617022    317.287185               P   P
PG15 -14069.259099  -9408.613249 -20996.755821    124.390817               P   P
PG16    471.834563  25303.295578  -7566.280978   -369.585764               P   P
PG17  22150.850722 -13322.106656   6868.857321    717.955004               P   P
PG18 -20188.286055   -473.396614 -17332.779423   -548.420203               P   P
PG20   -931.450821 -26605.710383   1328.214080    388.704228               P   P
PG21  20083.254589  16919.101562  -6101.263891    136.062105               P   P
PG22  10400.733879 -23013.012064  -8259.442073     36.509544               P   P
PG23 -14482.583054   8639.006937 -20448.282414    149.467573               P   P
PG24 -21063.385159 -16089.733996  -4265.176970   -426.338758               P   P
PG25 -15213.821936  -1324.598375  21391.620859    487.583629               P   P
PG26  -3791.847377  25730.817311   4151.499574    193.532592               P   P
PG27   -467.761839  16320.587595 -21137.386308     -1.156218               P   P
PG28  -8031.658313  12904.648282  21757.596534   -120.522708               P   P
PG29 -25153.802926   3212.403739   8022.021915   -607.563217               P   P
PG30  14166.429256  -8555.074568 -20692.181024   -436.706089               P   P
PG31    918.217397  17862.523833  19291.809497   -227.653924               P   P
PG32 -19117.074061  15875.263623   9275.335108   -609.786055               P   P
PR01   -374.338555  15019.321646  20622.131262     76.320200               P   P
PR02  13014.259975   1327.900151  21959.744341    -22.446737               P   P
PR03  19308.949268 -12966.290335  10596.002726     93.922019               P   P
PR04  15063.587024 -19606.912390  -6274.643573    222.071405               P   P
PR05   2725.920459 -15858.579576 -19787.090555    126.432410               P   P
PR07 -19284.968423  13524.818084  -9678.554640     75.122714               P   P
PR08 -14672.617146  19776.756416   6645.322094    -74.276701               P   P
PR09 -13250.115371 -14144.682191  16552.087501    168.227914               P   P
PR11  -2960.517004  18484.977509  17339.077941     35.380158               P   P
PR12   7417.058996  24395.267141   -271.922584     36.433187               P   P
PR13  12615.904804  16436.999724 -14894.311206    -44.039159               P   P
PR14  10621.714404  -3409.240860 -22935.255582     26.003458               P   P
PR15   2367.981450 -19506.306022 -16252.749748     82.490034               P   P
PR16  -7426.517524 -24386.115407      1.929381     23.016706               P   P
PR17  22267.060822   -257.733586  12422.273435     58.527614               P   P
PR18   9358.677949  -7972.454284  22377.841179    125.738184               P   P
PR19  -6439.404731 -11937.141348  21606.195575   -264.604754               P   P
PR20 -22882.900992  -9545.071187   5903.885773   -107.784464               P   P
PR21 -22138.612986    180.438964 -12682.770198    -74.432797               P   P
PR22  -8551.551045   8530.904879 -22434.994410    106.544733               P   P
PR24  23474.716227   8479.060214  -5223.051699    -42.647455               P   P
PE02 -16731.122289   9913.484984  22297.646475    100.781313               P   P
PE03 -27678.798134  10268.971993  -2204.866931    -91.685871               P   P
PE04  16407.280080 -19006.262011 -15670.951032   -319.841496               P   P
PE05 -22657.910604  -4333.152572 -18542.380484   4717.000401               P   P
PE07   3906.507013  16686.262660  24140.184336   -102.079263               P   P
PE08 -17044.181657  18815.830845  15225.820316   -218.872334               P   P
PE09  -3735.027183 -16594.772502 -24221.544542   -324.591430               P   P
PE10  -4105.573231 -20106.102046  21331.226885   -599.478010               P   P
PE11 -14101.446756 -21882.927636  14065.975648   3262.462953               P   P
PE12   5554.180539 -15632.146234  24514.421987   -892.644141               P   P
PE13  13581.451950  21844.522213 -14649.359797    -20.086044               P   P
PE14   7127.665128  17876.675955 -22790.511612 999999.999999               P   P
PE15  -6004.592787  15253.536833 -24636.191535    -84.017284               P   P
PE18 -22266.829941  -6058.265586  15731.425385 999999.999999               P   P
PE19  27976.261778  -8634.350146   4383.365825   -676.900725               P   P
PE21  14543.687898  11731.528904 -22963.324748   -577.391534               P   P
PE24  -3409.099495 -27721.208494   9822.121537   -580.566832               P   P
PE25 -14390.990973 -12175.324227  22821.464368      0.456780               P   P
PE26  25060.082739  15149.114634   4351.086009    359.503635               P   P
PE27   3779.055439  27510.138157 -10235.040575   -266.721750               P   P
PE30  -9319.728528  26739.853048   8570.128905   -881.008304               P   P
PE31   9092.882832 -26898.557342  -8383.876010    -15.284806               P   P
PE33  22079.583691    663.452120  19711.757686      7.085860               P   P
PE34 -21786.926923   -140.124450 -20036.547263    -92.852615               P   P
PE36 -24891.105576 -15567.454153  -3712.042499   -181.489949               P   P
EOF
